{
    "links": {
        "self": "http://www.neowsapp.com/rest/v1/neo/3843423?api_key=iIulBulltgU6a56xZRHN4H3l9WmuAYTsLGpBGhQ2"
    },
    "id": "3843423",
    "neo_reference_id": "3843423",
    "name": "(2019 OQ3)",
    "designation": "2019 OQ3",
    "nasa_jpl_url": "http://ssd.jpl.nasa.gov/sbdb.cgi?sstr=3843423",
    "absolute_magnitude_h": 23.5,
    "estimated_diameter": {
        "kilometers": {
            "estimated_diameter_min": 0.0530340723,
            "estimated_diameter_max": 0.1185877909
        },
        "meters": {
            "estimated_diameter_min": 53.0340723319,
            "estimated_diameter_max": 118.5877908577
        },
        "miles": {
            "estimated_diameter_min": 0.0329538346,
            "estimated_diameter_max": 0.0736870142
        },
        "feet": {
            "estimated_diameter_min": 173.9963058693,
            "estimated_diameter_max": 389.0675677576
        }
    },
    "is_potentially_hazardous_asteroid": false,
    "close_approach_data": [
        {
            "close_approach_date": "2019-08-09",
            "close_approach_date_full": "2019-Aug-09 04:21",
            "epoch_date_close_approach": 1565324460000,
            "relative_velocity": {
                "kilometers_per_second": "11.8980700969",
                "kilometers_per_hour": "42833.0523487727",
                "miles_per_hour": "26614.7929997138"
            },
            "miss_distance": {
                "astronomical": "0.2138507064",
                "lunar": "83.1879247896",
                "kilometers": "31991610.175435368",
                "miles": "19878664.7770813584"
            },
            "orbiting_body": "Earth"
        }
    ],
    "orbital_data": {
        "orbit_id": "4",
        "orbit_determination_date": "2019-08-08 05:55:48",
        "first_observation_date": "2019-07-27",
        "last_observation_date": "2019-08-07",
        "data_arc_in_days": 11,
        "observations_used": 33,
        "orbit_uncertainty": "8",
        "minimum_orbit_intersection": ".210917",
        "jupiter_tisserand_invariant": "3.040",
        "epoch_osculation": "2458693.5",
        "eccentricity": ".5542333695764294",
        "semi_major_axis": "2.720431722095228",
        "inclination": "20.50476849608535",
        "ascending_node_longitude": "129.7505111519938",
        "orbital_period": "1638.910253938024",
        "perihelion_distance": "1.212677682055781",
        "perihelion_argument": "197.2768494488293",
        "aphelion_distance": "4.228185762134674",
        "perihelion_time": "2458718.114711758205",
        "mean_anomaly": "354.5931778682441",
        "mean_motion": ".2196581534193107",
        "equinox": "J2000",
        "orbit_class": {
            "orbit_class_type": "AMO",
            "orbit_class_description": "Near-Earth asteroid orbits similar to that of 1221 Amor",
            "orbit_class_range": "1.017 AU < q (perihelion) < 1.3 AU"
        }
    },
    "is_sentry_object": false
}